{
  "type": "FeatureCollection",
  "features": [
    {
      "type": "Feature",
      "properties": {
        "norad_id": 66718,
        "name": "FLOCK 4H-15",
        "group": "last-30-days",
        "lat": 82.02593466289568,
        "lon": 0.3420845628853025,
        "alt_km": 509.29611234830463,
        "timestamp": "2025-12-23T16:57:11.060954+00:00",
        "meta_object_name": "FLOCK 4H-15",
        "meta_object_id": "2025-276BE",
        "meta_epoch": "2025-12-23T03:54:23.647680",
        "meta_mean_motion": 15.17106211,
        "meta_eccentricity": 0.00031777,
        "meta_inclination": 97.442,
        "meta_ra_of_asc_node": 68.7381,
        "meta_arg_of_pericenter": 267.8597,
        "meta_mean_anomaly": 92.2273,
        "meta_ephemeris_type": 0,
        "meta_classification_type": "U",
        "meta_norad_cat_id": 66718,
        "meta_element_set_no": 999,
        "meta_rev_at_epoch": 370,
        "meta_bstar": 0.00053111165,
        "meta_mean_motion_dot": 0.00010468,
        "meta_mean_motion_ddot": 0,
        "tle_line1": "1 66718U 25276BE  25357.16277370  .00010468  00000+0  53111-3 0  9997",
        "tle_line2": "2 66718  97.4420  68.7381 0003177 267.8597  92.2273 15.17106211  3701"
      },
      "geometry": {
        "type": "Point",
        "coordinates": [
          0.3420845628853025,
          82.02593466289568
        ]
      }
    },
    {
      "type": "Feature",
      "properties": {
        "norad_id": 66719,
        "name": "FLOCK 4H-16",
        "group": "last-30-days",
        "lat": 80.01219295583155,
        "lon": -62.7838174994488,
        "alt_km": 508.96682409605637,
        "timestamp": "2025-12-23T16:57:11.060966+00:00",
        "meta_object_name": "FLOCK 4H-16",
        "meta_object_id": "2025-276BF",
        "meta_epoch": "2025-12-23T06:00:00.999648",
        "meta_mean_motion": 15.17230938,
        "meta_eccentricity": 0.00033597,
        "meta_inclination": 97.4434,
        "meta_ra_of_asc_node": 68.8334,
        "meta_arg_of_pericenter": 252.7579,
        "meta_mean_anomaly": 232.8292,
        "meta_ephemeris_type": 0,
        "meta_classification_type": "U",
        "meta_norad_cat_id": 66719,
        "meta_element_set_no": 999,
        "meta_rev_at_epoch": 314,
        "meta_bstar": -0.00074353327,
        "meta_mean_motion_dot": -0.00014815,
        "meta_mean_motion_ddot": 0,
        "tle_line1": "1 66719U 25276BF  25357.25001157 -.00014815  00000+0 -74353-3 0  9999",
        "tle_line2": "2 66719  97.4434  68.8334 0003359 252.7579 232.8292 15.17230938  3146"
      },
      "geometry": {
        "type": "Point",
        "coordinates": [
          -62.7838174994488,
          80.01219295583155
        ]
      }
    },
    {
      "type": "Feature",
      "properties": {
        "norad_id": 66720,
        "name": "FLOCK 4H-17",
        "group": "last-30-days",
        "lat": 10.256240753102865,
        "lon": -109.32920486660791,
        "alt_km": 506.5121949609402,
        "timestamp": "2025-12-23T16:57:11.060976+00:00",
        "meta_object_name": "FLOCK 4H-17",
        "meta_object_id": "2025-276BG",
        "meta_epoch": "2025-12-23T03:33:10.255968",
        "meta_mean_motion": 15.180572,
        "meta_eccentricity": 0.00099236,
        "meta_inclination": 97.4441,
        "meta_ra_of_asc_node": 68.7659,
        "meta_arg_of_pericenter": 175.8921,
        "meta_mean_anomaly": 184.2397,
        "meta_ephemeris_type": 0,
        "meta_classification_type": "U",
        "meta_norad_cat_id": 66720,
        "meta_element_set_no": 999,
        "meta_rev_at_epoch": 370,
        "meta_bstar": 0.0005193494,
        "meta_mean_motion_dot": 0.00010529,
        "meta_mean_motion_ddot": 0,
        "tle_line1": "1 66720U 25276BG  25357.14803537  .00010529  00000+0  51935-3 0  9998",
        "tle_line2": "2 66720  97.4441  68.7659 0009923 175.8921 184.2397 15.18057200  3702"
      },
      "geometry": {
        "type": "Point",
        "coordinates": [
          -109.32920486660791,
          10.256240753102865
        ]
      }
    },
    {
      "type": "Feature",
      "properties": {
        "norad_id": 66721,
        "name": "FLOCK 4H-18",
        "group": "last-30-days",
        "lat": 82.55341636765,
        "lon": -22.499967675371423,
        "alt_km": 508.75003191023643,
        "timestamp": "2025-12-23T16:57:11.060986+00:00",
        "meta_object_name": "FLOCK 4H-18",
        "meta_object_id": "2025-276BH",
        "meta_epoch": "2025-12-23T03:53:36.273696",
        "meta_mean_motion": 15.17144209,
        "meta_eccentricity": 0.00026274,
        "meta_inclination": 97.438,
        "meta_ra_of_asc_node": 68.7239,
        "meta_arg_of_pericenter": 283.5106,
        "meta_mean_anomaly": 76.5835,
        "meta_ephemeris_type": 0,
        "meta_classification_type": "U",
        "meta_norad_cat_id": 66721,
        "meta_element_set_no": 999,
        "meta_rev_at_epoch": 370,
        "meta_bstar": 0.0005248516,
        "meta_mean_motion_dot": 0.00010355,
        "meta_mean_motion_ddot": 0,
        "tle_line1": "1 66721U 25276BH  25357.16222539  .00010355  00000+0  52485-3 0  9996",
        "tle_line2": "2 66721  97.4380  68.7239 0002627 283.5106  76.5835 15.17144209  3700"
      },
      "geometry": {
        "type": "Point",
        "coordinates": [
          -22.499967675371423,
          82.55341636765
        ]
      }
    },
    {
      "type": "Feature",
      "properties": {
        "norad_id": 66722,
        "name": "FLOCK 4H-19",
        "group": "last-30-days",
        "lat": -5.64427688099861,
        "lon": -111.43927025434895,
        "alt_km": 513.5532970022514,
        "timestamp": "2025-12-23T16:57:11.060995+00:00",
        "meta_object_name": "FLOCK 4H-19",
        "meta_object_id": "2025-276BJ",
        "meta_epoch": "2025-12-23T05:03:57.159072",
        "meta_mean_motion": 15.18235301,
        "meta_eccentricity": 0.00024211,
        "meta_inclination": 97.439,
        "meta_ra_of_asc_node": 68.8136,
        "meta_arg_of_pericenter": 153.2322,
        "meta_mean_anomaly": 206.9037,
        "meta_ephemeris_type": 0,
        "meta_classification_type": "U",
        "meta_norad_cat_id": 66722,
        "meta_element_set_no": 999,
        "meta_rev_at_epoch": 300,
        "meta_bstar": 0.00047484291,
        "meta_mean_motion_dot": 9.659e-05,
        "meta_mean_motion_ddot": 0,
        "tle_line1": "1 66722U 25276BJ  25357.21107823  .00009659  00000+0  47484-3 0  9999",
        "tle_line2": "2 66722  97.4390  68.8136 0002421 153.2322 206.9037 15.18235301  3005"
      },
      "geometry": {
        "type": "Point",
        "coordinates": [
          -111.43927025434895,
          -5.64427688099861
        ]
      }
    },
    {
      "type": "Feature",
      "properties": {
        "norad_id": 66723,
        "name": "FLOCK 4H-20",
        "group": "last-30-days",
        "lat": -9.219940625204497,
        "lon": -111.89976937867624,
        "alt_km": 513.3350163663226,
        "timestamp": "2025-12-23T16:57:11.061008+00:00",
        "meta_object_name": "FLOCK 4H-20",
        "meta_object_id": "2025-276BK",
        "meta_epoch": "2025-12-23T03:28:07.751424",
        "meta_mean_motion": 15.18303761,
        "meta_eccentricity": 0.0002805,
        "meta_inclination": 97.4424,
        "meta_ra_of_asc_node": 68.7633,
        "meta_arg_of_pericenter": 169.4373,
        "meta_mean_anomaly": 190.692,
        "meta_ephemeris_type": 0,
        "meta_classification_type": "U",
        "meta_norad_cat_id": 66723,
        "meta_element_set_no": 999,
        "meta_rev_at_epoch": 295,
        "meta_bstar": 0.0005459203,
        "meta_mean_motion_dot": 0.00011139,
        "meta_mean_motion_ddot": 0,
        "tle_line1": "1 66723U 25276BK  25357.14453416  .00011139  00000+0  54592-3 0  9998",
        "tle_line2": "2 66723  97.4424  68.7633 0002805 169.4373 190.6920 15.18303761  2955"
      },
      "geometry": {
        "type": "Point",
        "coordinates": [
          -111.89976937867624,
          -9.219940625204497
        ]
      }
    },
    {
      "type": "Feature",
      "properties": {
        "norad_id": 66724,
        "name": "FLOCK 4H-21",
        "group": "last-30-days",
        "lat": -12.325531905324357,
        "lon": -112.33295045407338,
        "alt_km": 513.7221299142811,
        "timestamp": "2025-12-23T16:57:11.061020+00:00",
        "meta_object_name": "FLOCK 4H-21",
        "meta_object_id": "2025-276BL",
        "meta_epoch": "2025-12-23T03:27:20.078496",
        "meta_mean_motion": 15.18361715,
        "meta_eccentricity": 0.00025699,
        "meta_inclination": 97.4388,
        "meta_ra_of_asc_node": 68.7499,
        "meta_arg_of_pericenter": 166.685,
        "meta_mean_anomaly": 193.4452,
        "meta_ephemeris_type": 0,
        "meta_classification_type": "U",
        "meta_norad_cat_id": 66724,
        "meta_element_set_no": 999,
        "meta_rev_at_epoch": 295,
        "meta_bstar": 0.00053755371,
        "meta_mean_motion_dot": 0.00010985,
        "meta_mean_motion_ddot": 0,
        "tle_line1": "1 66724U 25276BL  25357.14398239  .00010985  00000+0  53755-3 0  9998",
        "tle_line2": "2 66724  97.4388  68.7499 0002569 166.6850 193.4452 15.18361715  2955"
      },
      "geometry": {
        "type": "Point",
        "coordinates": [
          -112.33295045407338,
          -12.325531905324357
        ]
      }
    }
  ]
}